STARLINK-3827           
1 52370C 22045AR  26119.33173611  .00009755  00000+0  61184-3 0  1196
2 52370  53.2169 321.7913 0001244  83.9415  18.3494 15.08825993    12
STARLINK-3798           
1 52371C 22045AS  26119.31368056 -.00001768  00000+0 -11086-3 0  1198
2 52371  53.2167 321.8726 0001381  90.1625 293.9836 15.08831287    13
STARLINK-3796           
1 52372C 22045AT  26119.34562500  .00018825  00000+0  11806-2 0  1191
2 52372  53.2162 321.7172 0001300  90.1407 152.8219 15.08823963    12
STARLINK-3550           
1 52373C 22045AU  26119.29909722 -.00009032  00000+0 -56643-3 0  1198
2 52373  53.2156 321.9270 0001241  91.1919 318.7862 15.08839336    18
STARLINK-3762           
1 52374C 22045AV  26119.33312500  .00011121  00000+0  69731-3 0  1198
2 52374  53.2159 321.7744 0001345  86.3271 128.6924 15.08837306    10
STARLINK-3785           
1 52375C 22045AW  26119.33590278  .00012871  00000+0  80717-3 0  1199
2 52375  53.2162 321.7617 0001304  91.0193 119.1086 15.08829160    18
STARLINK-3805           
1 52377C 22045AY  26119.35048611  .00020537  00000+0  12881-2 0  1196
2 52377  53.2166 321.9169 0001410  92.2854 136.9523 15.08821908    18
STARLINK-3806           
1 52378C 22045AZ  26119.30395833 -.00005884  00000+0 -36901-3 0  1193
2 52378  53.2159 321.9071 0001280  92.2848  44.1843 15.08836736    11
STARLINK-3800           
1 52379C 22045BA  26119.31298611 -.00001377  00000+0 -86329-4 0  1194
2 52379  53.2156 321.8660 0001304  93.6972  71.8753 15.08837265    17
STARLINK-3793           
1 52380C 22045BB  26119.28868056  .00000925  00000+0  57981-4 0  1196
2 52380  53.2155 312.0043 0002011 108.1785  40.2033 15.08859291    19
STARLINK-3799           
1 52382C 22045BD  26119.32062500  .00177150  00000+0  86235-2 0  1190
2 52382  53.2163 320.7555 0002046  88.7037  19.5186 15.17776058    12
STARLINK-3811           
1 52383C 22045BE  26119.35395833  .00037757  00000+0  23682-2 0  1197
2 52383  53.2164 311.7094 0001312  95.8015 227.4358 15.08810864    17
STARLINK-3870           
1 52451C 22049A   26119.31923611  .01020400  00000+0  48984-2 0  1194
2 52451  53.2121 190.7852 0001578  75.3128 149.8112 15.81484165    12
STARLINK-3909           
1 52452C 22049B   26119.29493056 -.00009533  00000+0 -59781-3 0  1190
2 52452  53.2163 201.8151 0000745  85.6779  81.8394 15.08844055    10
STARLINK-3872           
1 52453C 22049C   26119.32826389 -.00020255  00000+0 -12699-2 0  1194
2 52453  53.2162 201.7961 0001280  90.5730 358.0123 15.08854295    11
STARLINK-3888           
1 52454C 22049D   26119.29006944 -.00005275  00000+0 -33071-3 0  1191
2 52454  53.2164 201.9674 0001290  93.4928 127.5142 15.08847949    17
STARLINK-3890           
1 52455C 22049E   26119.34354167 -.00021656  00000+0 -13578-2 0  1191
2 52455  53.2162 201.7277 0001058  88.2531  98.1659 15.08854891    17
STARLINK-3896           
1 52456C 22049F   26119.33312500 -.00020288  00000+0 -12722-2 0  1196
2 52456  53.2163 201.7743 0001367  90.4960  59.3111 15.08849784    18
STARLINK-3899           
1 52457C 22049G   26119.33659722 -.00019391  00000+0 -12158-2 0  1193
2 52457  53.2159 201.7472 0001314  89.1141 104.7678 15.08854393    16
STARLINK-3898           
1 52458C 22049H   26119.33451389 -.00022462  00000+0 -14074-2 0  1195
2 52458  53.2158 201.7662 0001138  84.8396 112.4744 15.08878039    18
STARLINK-3856           
1 52459C 22049J   26119.29701389 -.00019890  00000+0 -12472-2 0  1190
2 52459  53.2161 191.9367 0001324  90.4776 343.2768 15.08850514    15
STARLINK-3900           
1 52461C 22049L   26119.31784722 -.00029517  00000+0 -18509-2 0  1192
2 52461  53.2156 181.8430 0001087 100.2371 101.7352 15.08853469    16
STARLINK-3903           
1 52462C 22049M   26119.31368056 -.00021293  00000+0 -13352-2 0  1195
2 52462  53.2159 191.8706 0001341  90.0982 109.0259 15.08850026    17
STARLINK-3885           
1 52463C 22049N   26119.32062500 -.00031138  00000+0 -19526-2 0  1190
2 52463  53.2159 181.8311 0001204  92.5438 144.5418 15.08854430    14
STARLINK-3904           
1 52464C 22049P   26119.32895833 -.00023104  00000+0 -14497-2 0  1190
2 52464  53.2161 191.7934 0001244  79.0301 188.4236 15.08827640    10
STARLINK-3863           
1 52465C 22049Q   26119.30256944 -.00029289  00000+0 -18367-2 0  1193
2 52465  53.2157 181.9102 0001197  92.6969  66.2536 15.08851035    13
STARLINK-3873           
1 52467C 22049S   26119.31854167 -.00022842  00000+0 -14323-2 0  1193
2 52467  53.2156 191.8383 0001187  86.2347 164.5196 15.08852475    16
STARLINK-3864           
1 52468C 22049T   26119.34076389 -.00030355  00000+0 -19035-2 0  1192
2 52468  53.2151 191.7381 0001288  84.1306   7.3921 15.08852719    14
STARLINK-3828           
1 52469C 22049U   26119.33520833 -.00028083  00000+0 -17608-2 0  1199
2 52469  53.2155 191.7712 0001292  85.5494 295.7807 15.08856751    11
STARLINK-3859           
1 52470C 22049V   26119.33659722 -.00036329  00000+0 -22779-2 0  1198
2 52470  53.2155 191.7566 0001221  91.6884  17.2025 15.08859270    11
STARLINK-3862           
1 52471C 22049W   26119.34979167 -.00034067  00000+0 -21362-2 0  1192
2 52471  53.2153 191.7078 0001269  88.3824  27.0041 15.08856496    11
STARLINK-3881           
1 52472C 22049X   26119.33520833 -.00032733  00000+0 -20526-2 0  1193
2 52472  53.2155 191.7626 0001053  91.1976  30.1408 15.08854871    11
STARLINK-3879           
1 52473C 22049Y   26119.29145833 -.00017364  00000+0 -10888-2 0  1195
2 52473  53.2154 191.9592 0001318  90.4450 113.1181 15.08849467    13
STARLINK-3882           
1 52475C 22049AA  26119.32270833 -.00025660  00000+0 -16089-2 0  1197
2 52475  53.2155 192.0423 0001216  89.3349 203.9216 15.08855690    14
STARLINK-3835           
1 52476C 22049AB  26119.33173611 -.00043520  00000+0 -27291-2 0  1197
2 52476  53.2154 182.0213 0001243  94.4844 157.6302 15.08859697    19
STARLINK-3860           
1 52477C 22049AC  26119.30048611 -.00028169  00000+0 -17663-2 0  1190
2 52477  53.2161 181.9210 0001092  90.3006  77.3214 15.08854030    16
STARLINK-3825           
1 52478C 22049AD  26119.32340278 -.00032486  00000+0 -20370-2 0  1193
2 52478  53.2158 191.8144 0001167  94.0848   3.0973 15.08856630    13
STARLINK-3878           
1 52479C 22049AE  26119.28451389 -.00023510  00000+0 -14742-2 0  1199
2 52479  53.2160 181.9934 0001300  88.9241  71.8989 15.08850940    10
STARLINK-3839           
1 52480C 22049AF  26119.29354167 -.00019854  00000+0 -12449-2 0  1196
2 52480  53.2158 191.9489 0001136  92.9822 221.9048 15.08849777    12
STARLINK-3813           
1 52482C 22049AH  26119.36437500 -.00025286  00000+0 -15857-2 0  1191
2 52482  53.2156 181.6343 0001308  85.4813 189.3664 15.08848406    14
STARLINK-3875           
1 52483C 22049AJ  26119.32270833 -.00028931  00000+0 -18141-2 0  1191
2 52483  53.2161 181.8209 0001146  85.7992 262.5967 15.08854993    13
STARLINK-3887           
1 52484C 22049AK  26119.35048611 -.00027578  00000+0 -17294-2 0  1196
2 52484  53.2159 191.6947 0001210  88.2821 196.0861 15.08851682    16
STARLINK-3913           
1 52485C 22049AL  26119.33868056 -.00031631  00000+0 -19838-2 0  1199
2 52485  53.2158 181.7493 0001314  80.3917  34.8327 15.08848814    15
STARLINK-3918           
1 52486C 22049AM  26119.34145833 -.00025664  00000+0 -16093-2 0  1191
2 52486  53.2162 191.7355 0001199  87.3643 187.9338 15.08852289    16
STARLINK-3902           
1 52487C 22049AN  26119.32270833 -.00028779  00000+0 -18040-2 0  1193
2 52487  53.2162 181.9271 0001227  82.3983 245.8810 15.08864966    13
STARLINK-3892           
1 52488C 22049AP  26119.32687500 -.00029412  00000+0 -18442-2 0  1198
2 52488  53.2160 191.8030 0001283  91.4143 124.6362 15.08856861    17
STARLINK-3923           
1 52489C 22049AQ  26119.32270833 -.00030603  00000+0 -19188-2 0  1198
2 52489  53.2162 191.8207 0001187  94.2421  59.1587 15.08857767    16
STARLINK-3914           
1 52490C 22049AR  26119.31159722 -.00033133  00000+0 -20776-2 0  1198
2 52490  53.2153 181.8705 0001204  88.3081 319.7075 15.08857377    10
STARLINK-3908           
1 52491C 22049AS  26119.27270833 -.00021031  00000+0 -13185-2 0  1191
2 52491  53.2156 182.0456 0001224  85.3378  71.3174 15.08857846    10
STARLINK-3916           
1 52492C 22049AT  26119.31993056 -.00030785  00000+0 -19314-2 0  1192
2 52492  53.2148 181.8305 0001188  70.4613  62.8163 15.08836477    18
STARLINK-3883           
1 52493C 22049AU  26119.29006944 -.00026723  00000+0 -16753-2 0  1192
2 52493  53.2154 181.9670 0001231  92.4457 178.5665 15.08861465    18
STARLINK-3857           
1 52494C 22049AV  26119.30673611 -.00031522  00000+0 -19766-2 0  1196
2 52494  53.2151 181.8895 0001139  90.2003  31.3855 15.08856230    15
STARLINK-3871           
1 52496C 22049AX  26119.32062500 -.00031652  00000+0 -19848-2 0  1194
2 52496  53.2161 176.8316 0001201  88.0621 276.5179 15.08854489    17
STARLINK-3884           
1 52497C 22049AY  26119.34562500 -.00040525  00000+0 -25407-2 0  1199
2 52497  53.2150 181.7148 0001161  91.4599 201.4732 15.08866631    15
STARLINK-3925           
1 52498C 22049AZ  26119.36298611 -.00026545  00000+0 -16646-2 0  1192
2 52498  53.2144 171.6380 0001166  85.6293  76.6790 15.08850892    14
STARLINK-3894           
1 52499C 22049BA  26119.29006944 -.00029990  00000+0 -18805-2 0  1197
2 52499  53.2152 181.9641 0000706  89.6387 281.3701 15.08855424    18
STARLINK-3866           
1 52500C 22049BB  26119.34215278 -.00031719  00000+0 -19893-2 0  1198
2 52500  53.2145 171.7315 0001185  76.6807 352.3966 15.08848710    15
STARLINK-3907           
1 52501C 22049BC  26119.34215278 -.00032054  00000+0 -20100-2 0  1195
2 52501  53.2158 181.5316 0001184  89.4745 324.7315 15.08854616    15
STARLINK-3912           
1 52502C 22049BD  26119.33243056 -.00034614  00000+0 -21707-2 0  1198
2 52502  53.2147 171.8051 0001232  88.1326 308.0960 15.08853864    12
